start=new Date('2022-09-14T00:00:00.000Z').valueOf();
sats=[{"RCS_SIZE":"LARGE","MEAN_ELEMENT_THEORY":"SGP4","DECAY_DATE":null,"TIME_SYSTEM":"UTC","BSTAR":"0.00188940000000","SEMIMAJOR_AXIS":"6917.978","REF_FRAME":"TEME","OBJECT_NAME":"STARLINK-3958","MEAN_MOTION":"15.08807976","PERIAPSIS":"538.622","REV_AT_EPOCH":"130","ARG_OF_PERICENTER":"60.1250","ELEMENT_SET_NO":"999","ECCENTRICITY":"0.00017650","OBJECT_TYPE":"PAYLOAD","FILE":"3573088","PERIOD":"95.440","LAUNCH_DATE":"2022-05-13","INCLINATION":"53.2158","CLASSIFICATION_TYPE":"U","MEAN_ANOMALY":"352.0708","RA_OF_ASC_NODE":"82.8299","GP_ID":"212537598","EPHEMERIS_TYPE":"0","CENTER_NAME":"EARTH","MEAN_MOTION_DDOT":"0.0000000000000","EPOCH":"2022-09-13T22:00:00.999936","TLE_LINE2":"2 52535  53.2158  82.8299 0001765  60.1250 352.0708 15.08807976  1307","COUNTRY_CODE":"US","APOAPSIS":"541.064","MEAN_MOTION_DOT":"0.00029884","NORAD_CAT_ID":"52535","SITE":"AFWTR","TLE_LINE1":"1 52535U 22051C   22256.91667824  .00029884  00000-0  18894-2 0  9993","OBJECT_ID":"2022-051C"},{"NORAD_CAT_ID":"52536","MEAN_MOTION_DOT":"-0.00044830","APOAPSIS":"540.852","COUNTRY_CODE":"US","OBJECT_ID":"2022-051D","TLE_LINE1":"1 52536U 22051D   22256.91667824 -.00044830  00000-0 -28152-2 0  9992","SITE":"AFWTR","MEAN_MOTION_DDOT":"0.0000000000000","EPOCH":"2022-09-13T22:00:00.999936","CENTER_NAME":"EARTH","EPHEMERIS_TYPE":"0","GP_ID":"212537757","TLE_LINE2":"2 52536  53.2168  82.8253 0001658  58.2727  13.9286 15.08853223  1307","INCLINATION":"53.2168","LAUNCH_DATE":"2022-05-13","PERIOD":"95.437","OBJECT_TYPE":"PAYLOAD","FILE":"3573088","RA_OF_ASC_NODE":"82.8253","MEAN_ANOMALY":"13.9286","CLASSIFICATION_TYPE":"U","MEAN_ELEMENT_THEORY":"SGP4","RCS_SIZE":"LARGE","ELEMENT_SET_NO":"999","ECCENTRICITY":"0.00016580","ARG_OF_PERICENTER":"58.2727","REV_AT_EPOCH":"130","PERIAPSIS":"538.558","MEAN_MOTION":"15.08853223","REF_FRAME":"TEME","SEMIMAJOR_AXIS":"6917.840","BSTAR":"-0.00281520000000","OBJECT_NAME":"STARLINK-3964","TIME_SYSTEM":"UTC","DECAY_DATE":null},{"OBJECT_ID":"2022-051E","TLE_LINE1":"1 52537U 22051E   22256.91667824 -.00028235  00000-0 -17630-2 0  9993","SITE":"AFWTR","APOAPSIS":"540.842","MEAN_MOTION_DOT":"-0.00028235","NORAD_CAT_ID":"52537","COUNTRY_CODE":"US","TLE_LINE2":"2 52537  53.2173  82.8277 0001578  62.2485  29.9579 15.08838346  1308","MEAN_MOTION_DDOT":"0.0000000000000","EPOCH":"2022-09-13T22:00:00.999936","CENTER_NAME":"EARTH","GP_ID":"212538486","EPHEMERIS_TYPE":"0","RA_OF_ASC_NODE":"82.8277","CLASSIFICATION_TYPE":"U","MEAN_ANOMALY":"29.9579","LAUNCH_DATE":"2022-05-13","INCLINATION":"53.2173","FILE":"3573088","OBJECT_TYPE":"PAYLOAD","PERIOD":"95.438","PERIAPSIS":"538.659","ECCENTRICITY":"0.00015780","ELEMENT_SET_NO":"999","ARG_OF_PERICENTER":"62.2485","REV_AT_EPOCH":"130","BSTAR":"-0.00176300000000","SEMIMAJOR_AXIS":"6917.885","OBJECT_NAME":"STARLINK-3897","REF_FRAME":"TEME","DECAY_DATE":null,"TIME_SYSTEM":"UTC","MEAN_MOTION":"15.08838346","MEAN_ELEMENT_THEORY":"SGP4","RCS_SIZE":"LARGE"},{"RA_OF_ASC_NODE":"82.8289","CLASSIFICATION_TYPE":"U","MEAN_ANOMALY":"76.5805","LAUNCH_DATE":"2022-05-13","INCLINATION":"53.2172","OBJECT_TYPE":"PAYLOAD","FILE":"3573088","PERIOD":"95.439","PERIAPSIS":"538.785","REV_AT_EPOCH":"130","ELEMENT_SET_NO":"999","ECCENTRICITY":"0.00015170","ARG_OF_PERICENTER":"55.6129","TIME_SYSTEM":"UTC","DECAY_DATE":null,"BSTAR":"0.00245260000000","SEMIMAJOR_AXIS":"6917.969","REF_FRAME":"TEME","OBJECT_NAME":"STARLINK-3933","MEAN_MOTION":"15.08810979","MEAN_ELEMENT_THEORY":"SGP4","RCS_SIZE":"LARGE","OBJECT_ID":"2022-051F","SITE":"AFWTR","TLE_LINE1":"1 52538U 22051F   22256.91667824  .00038930  00000-0  24526-2 0  9997","APOAPSIS":"540.884","MEAN_MOTION_DOT":"0.00038930","NORAD_CAT_ID":"52538","COUNTRY_CODE":"US","TLE_LINE2":"2 52538  53.2172  82.8289 0001517  55.6129  76.5805 15.08810979  1307","CENTER_NAME":"EARTH","MEAN_MOTION_DDOT":"0.0000000000000","EPOCH":"2022-09-13T22:00:00.999936","GP_ID":"212537913","EPHEMERIS_TYPE":"0"},{"MEAN_ANOMALY":"54.3227","CLASSIFICATION_TYPE":"U","RA_OF_ASC_NODE":"82.8343","PERIOD":"95.440","FILE":"3573088","OBJECT_TYPE":"PAYLOAD","INCLINATION":"53.2160","LAUNCH_DATE":"2022-05-13","MEAN_MOTION":"15.08801960","DECAY_DATE":null,"TIME_SYSTEM":"UTC","BSTAR":"0.00192560000000","SEMIMAJOR_AXIS":"6917.997","REF_FRAME":"TEME","OBJECT_NAME":"STARLINK-3757","REV_AT_EPOCH":"130","ELEMENT_SET_NO":"999","ECCENTRICITY":"0.00016010","ARG_OF_PERICENTER":"57.9115","PERIAPSIS":"538.754","RCS_SIZE":"LARGE","MEAN_ELEMENT_THEORY":"SGP4","TLE_LINE1":"1 52539U 22051G   22256.91667824  .00030459  00000-0  19256-2 0  9990","SITE":"AFWTR","OBJECT_ID":"2022-051G","COUNTRY_CODE":"US","NORAD_CAT_ID":"52539","APOAPSIS":"540.969","MEAN_MOTION_DOT":"0.00030459","TLE_LINE2":"2 52539  53.2160  82.8343 0001601  57.9115  54.3227 15.08801960  1302","EPHEMERIS_TYPE":"0","GP_ID":"212538015","CENTER_NAME":"EARTH","MEAN_MOTION_DDOT":"0.0000000000000","EPOCH":"2022-09-13T22:00:00.999936"},{"MEAN_MOTION_DOT":"0.00042155","APOAPSIS":"540.924","NORAD_CAT_ID":"52540","COUNTRY_CODE":"US","OBJECT_ID":"2022-051H","TLE_LINE1":"1 52540U 22051H   22256.91667824  .00042155  00000-0  26528-2 0  9998","SITE":"AFWTR","MEAN_MOTION_DDOT":"0.0000000000000","EPOCH":"2022-09-13T22:00:00.999936","CENTER_NAME":"EARTH","GP_ID":"212538173","EPHEMERIS_TYPE":"0","TLE_LINE2":"2 52540  53.2172  82.8270 0001592  51.8234 140.3740 15.08814878  1308","LAUNCH_DATE":"2022-05-13","INCLINATION":"53.2172","FILE":"3573088","OBJECT_TYPE":"PAYLOAD","PERIOD":"95.439","RA_OF_ASC_NODE":"82.8270","CLASSIFICATION_TYPE":"U","MEAN_ANOMALY":"140.3740","MEAN_ELEMENT_THEORY":"SGP4","RCS_SIZE":"LARGE","PERIAPSIS":"538.721","ELEMENT_SET_NO":"999","ECCENTRICITY":"0.00015920","ARG_OF_PERICENTER":"51.8234","REV_AT_EPOCH":"130","BSTAR":"0.00265280000000","SEMIMAJOR_AXIS":"6917.957","REF_FRAME":"TEME","OBJECT_NAME":"STARLINK-3940","DECAY_DATE":null,"TIME_SYSTEM":"UTC","MEAN_MOTION":"15.08814878"},{"NORAD_CAT_ID":"52541","APOAPSIS":"540.942","MEAN_MOTION_DOT":"-0.00016297","COUNTRY_CODE":"US","OBJECT_ID":"2022-051J","SITE":"AFWTR","TLE_LINE1":"1 52541U 22051J   22256.91667824 -.00016297  00000-0 -10080-2 0  9995","MEAN_MOTION_DDOT":"0.0000000000000","EPOCH":"2022-09-13T22:00:00.999936","CENTER_NAME":"EARTH","EPHEMERIS_TYPE":"0","GP_ID":"212538703","TLE_LINE2":"2 52541  53.2131  87.8297 0001752  60.7875 303.8938 15.08845131  1307","INCLINATION":"53.2131","LAUNCH_DATE":"2022-05-13","PERIOD":"95.437","FILE":"3573088","OBJECT_TYPE":"PAYLOAD","RA_OF_ASC_NODE":"87.8297","MEAN_ANOMALY":"303.8938","CLASSIFICATION_TYPE":"U","MEAN_ELEMENT_THEORY":"SGP4","RCS_SIZE":"LARGE","ECCENTRICITY":"0.00017520","ELEMENT_SET_NO":"999","ARG_OF_PERICENTER":"60.7875","REV_AT_EPOCH":"130","PERIAPSIS":"538.518","MEAN_MOTION":"15.08845131","SEMIMAJOR_AXIS":"6917.865","BSTAR":"-0.00100800000000","REF_FRAME":"TEME","OBJECT_NAME":"STARLINK-3845","DECAY_DATE":null,"TIME_SYSTEM":"UTC"},{"EPHEMERIS_TYPE":"0","GP_ID":"212538328","EPOCH":"2022-09-13T22:00:00.999936","MEAN_MOTION_DDOT":"0.0000000000000","CENTER_NAME":"EARTH","TLE_LINE2":"2 52542  53.2181  82.8123 0001727  50.5012 161.6980 15.08823620  1304","COUNTRY_CODE":"US","NORAD_CAT_ID":"52542","APOAPSIS":"540.990","MEAN_MOTION_DOT":"0.00030066","TLE_LINE1":"1 52542U 22051K   22256.91667824  .00030066  00000-0  19000-2 0  9995","SITE":"AFWTR","OBJECT_ID":"2022-051K","RCS_SIZE":"LARGE","MEAN_ELEMENT_THEORY":"SGP4","MEAN_MOTION":"15.08823620","BSTAR":"0.00190000000000","SEMIMAJOR_AXIS":"6917.930","OBJECT_NAME":"STARLINK-3937","REF_FRAME":"TEME","DECAY_DATE":null,"TIME_SYSTEM":"UTC","ELEMENT_SET_NO":"999","ARG_OF_PERICENTER":"50.5012","ECCENTRICITY":"0.00017270","REV_AT_EPOCH":"130","PERIAPSIS":"538.601","PERIOD":"95.439","OBJECT_TYPE":"PAYLOAD","FILE":"3573088","INCLINATION":"53.2181","LAUNCH_DATE":"2022-05-13","MEAN_ANOMALY":"161.6980","CLASSIFICATION_TYPE":"U","RA_OF_ASC_NODE":"82.8123"},{"TLE_LINE2":"2 52543  53.2163  82.8333 0001701  50.9235 101.2908 15.08830002  1303","GP_ID":"212537599","EPHEMERIS_TYPE":"0","CENTER_NAME":"EARTH","MEAN_MOTION_DDOT":"0.0000000000000","EPOCH":"2022-09-13T22:00:00.999936","SITE":"AFWTR","TLE_LINE1":"1 52543U 22051L   22256.91667824 -.00006779  00000-0 -40831-3 0  9999","OBJECT_ID":"2022-051L","COUNTRY_CODE":"US","APOAPSIS":"540.953","MEAN_MOTION_DOT":"-0.00006779","NORAD_CAT_ID":"52543","TIME_SYSTEM":"UTC","DECAY_DATE":null,"REF_FRAME":"TEME","SEMIMAJOR_AXIS":"6917.911","BSTAR":"-0.00040831000000","OBJECT_NAME":"STARLINK-3926","MEAN_MOTION":"15.08830002","PERIAPSIS":"538.599","REV_AT_EPOCH":"130","ARG_OF_PERICENTER":"50.9235","ELEMENT_SET_NO":"999","ECCENTRICITY":"0.00017010","RCS_SIZE":"LARGE","MEAN_ELEMENT_THEORY":"SGP4","CLASSIFICATION_TYPE":"U","MEAN_ANOMALY":"101.2908","RA_OF_ASC_NODE":"82.8333","FILE":"3573088","OBJECT_TYPE":"PAYLOAD","PERIOD":"95.438","LAUNCH_DATE":"2022-05-13","INCLINATION":"53.2163"},{"MEAN_ELEMENT_THEORY":"SGP4","RCS_SIZE":"LARGE","PERIAPSIS":"538.568","REV_AT_EPOCH":"130","ECCENTRICITY":"0.00018300","ELEMENT_SET_NO":"999","ARG_OF_PERICENTER":"57.2114","TIME_SYSTEM":"UTC","DECAY_DATE":null,"REF_FRAME":"TEME","SEMIMAJOR_AXIS":"6917.969","BSTAR":"0.00199350000000","OBJECT_NAME":"STARLINK-3944","MEAN_MOTION":"15.08810854","LAUNCH_DATE":"2022-05-13","INCLINATION":"53.2164","OBJECT_TYPE":"PAYLOAD","FILE":"3573088","PERIOD":"95.439","RA_OF_ASC_NODE":"87.8335","CLASSIFICATION_TYPE":"U","MEAN_ANOMALY":"347.4856","CENTER_NAME":"EARTH","EPOCH":"2022-09-13T22:00:00.999936","MEAN_MOTION_DDOT":"0.0000000000000","GP_ID":"212537758","EPHEMERIS_TYPE":"0","TLE_LINE2":"2 52544  53.2164  87.8335 0001830  57.2114 347.4856 15.08810854  1300","MEAN_MOTION_DOT":"0.00031556","APOAPSIS":"541.100","NORAD_CAT_ID":"52544","COUNTRY_CODE":"US","OBJECT_ID":"2022-051M","SITE":"AFWTR","TLE_LINE1":"1 52544U 22051M   22256.91667824  .00031556  00000-0  19935-2 0  9999"}];
